NORAD_CAT_ID,OBJECT_NAME,OBJECT_TYPE,EPOCH,MEAN_MOTION,ECCENTRICITY,INCLINATION,RA_OF_ASC_NODE,ARG_OF_PERICENTER,MEAN_ANOMALY,BSTAR,MEAN_MOTION_DOT,MEAN_MOTION_DDOT,TLE_LINE0,TLE_LINE1,TLE_LINE2,SEMIMAJOR_AXIS,PERIOD,APOGEE,PERIGEE,DECAYED
53854.0,STARLINK-4800,PAYLOAD,2023-10-08 08:18:02,15.08840981,0.0001677,53.217,289.8411,86.2659,273.8525,0.00015803,2.228e-05,0.0,0 STARLINK-4800,1 53854U 22114AN  23281.34586145  .00002228  00000-0  15803-3 0  9991,2 53854  53.2170 289.8411 0001677  86.2659 273.8525 15.08840981 59218,6917.877,95.437,540.903,538.582,0.0
53854.0,STARLINK-4800,PAYLOAD,2023-10-08 17:50:21,15.08843852,0.0001549,53.2165,288.057,92.1353,267.9817,0.00017193,2.45e-05,0.0,0 STARLINK-4800,1 53854U 22114AN  23281.74329943  .00002450  00000-0  17193-3 0  9997,2 53854  53.2165 288.0570 0001549  92.1353 267.9817 15.08843852 59818,6917.869,95.437,540.805,538.662,0.0
53854.0,STARLINK-4800,PAYLOAD,2023-10-09 06:33:26,15.08847673,0.0001464,53.2156,285.6766,99.0132,261.1026,0.00021078,3.069e-05,0.0,0 STARLINK-4800,1 53854U 22114AN  23282.27321785  .00003069  00000-0  21078-3 0  9996,2 53854  53.2156 285.6766 0001464  99.0132 261.1026 15.08847673 59896,6917.857,95.437,540.735,538.709,0.0
53854.0,STARLINK-4800,PAYLOAD,2023-10-09 17:41:08,15.0884085,0.0001599,53.2159,283.5957,85.9556,274.1619,8.9607e-05,1.138e-05,0.0,0 STARLINK-4800,1 53854U 22114AN  23282.73690163  .00001138  00000-0  89607-4 0  9994,2 53854  53.2159 283.5957 0001599  85.9556 274.1619 15.08840850 59422,6917.878,95.438,540.849,538.637,0.0
53854.0,STARLINK-4800,PAYLOAD,2023-10-10 11:10:22,15.08852487,0.0001665,53.216,280.3224,99.6281,260.4899,0.00023993,3.534e-05,0.0,0 STARLINK-4800,1 53854U 22114AN  23283.46553704  .00003534  00000-0  23993-3 0  9991,2 53854  53.2160 280.3224 0001665  99.6281 260.4899 15.08852487 60077,6917.842,95.437,540.859,538.555,0.0
53854.0,STARLINK-4800,PAYLOAD,2023-10-10 17:31:55,15.08834632,0.0001801,53.2155,279.1343,98.8635,261.2561,3.4462e-05,2.6e-06,0.0,0 STARLINK-4800,1 53854U 22114AN  23283.73050635  .00000260  00000-0  34462-4 0  9993,2 53854  53.2155 279.1343 0001801  98.8635 261.2561 15.08834632 59575,6917.897,95.438,541.008,538.516,0.0
53854.0,STARLINK-4800,PAYLOAD,2023-10-11 09:25:47,15.08840482,0.0001733,53.2148,276.1597,102.4387,257.6799,0.00014297,1.988e-05,0.0,0 STARLINK-4800,1 53854U 22114AN  23284.39290567  .00001988  00000-0  14297-3 0  9997,2 53854  53.2148 276.1597 0001733 102.4387 257.6799 15.08840482 60210,6917.879,95.438,540.943,538.545,0.0
53854.0,STARLINK-4800,PAYLOAD,2023-10-12 04:30:25,15.08836064,0.000183,53.2153,272.5911,101.1289,258.9909,9.671e-05,1.251e-05,0.0,0 STARLINK-4800,1 53854U 22114AN  23285.18779085  .00001251  00000-0  96710-4 0  9996,2 53854  53.2153 272.5911 0001830 101.1289 258.9909 15.08836064 59790,6917.892,95.438,541.023,538.491,0.0
53854.0,STARLINK-4800,PAYLOAD,2023-10-12 10:51:57,15.08850721,0.0001485,53.2165,271.4016,97.3727,262.7434,0.00038222,5.802e-05,0.0,0 STARLINK-4800,1 53854U 22114AN  23285.45274520  .00005802  00000-0  38222-3 0  9999,2 53854  53.2165 271.4016 0001485  97.3727 262.7434 15.08850721 60374,6917.848,95.437,540.74,538.685,0.0
53854.0,STARLINK-4800,PAYLOAD,2023-10-13 04:21:12,15.08840638,0.0001832,53.2161,268.1294,109.7371,250.3819,0.00015417,2.166e-05,0.0,0 STARLINK-4800,1 53854U 22114AN  23286.18138992  .00002166  00000-0  15417-3 0  9993,2 53854  53.2161 268.1294 0001832 109.7371 250.3819 15.08840638 59947,6917.878,95.438,541.011,538.476,0.0
53854.0,STARLINK-4800,PAYLOAD,2023-10-13 09:07:21,15.08849122,0.0001672,53.2165,267.2395,101.3925,258.7255,0.00032347,4.865e-05,0.0,0 STARLINK-4800,1 53854U 22114AN  23286.38010735  .00004865  00000-0  32347-3 0  9998,2 53854  53.2165 267.2395 0001672 101.3925 258.7255 15.08849122 60516,6917.853,95.437,540.874,538.561,0.0
53854.0,STARLINK-4800,PAYLOAD,2023-10-13 15:28:53,15.08848712,0.0001646,53.2163,266.0488,87.1049,273.0131,0.00027337,4.066e-05,0.0,0 STARLINK-4800,1 53854U 22114AN  23286.64506755  .00004066  00000-0  27337-3 0  9995,2 53854  53.2163 266.0488 0001646  87.1049 273.0131 15.08848712 60554,6917.854,95.437,540.857,538.58,0.0
53854.0,STARLINK-4800,PAYLOAD,2023-10-14 07:22:44,15.0885735,0.0001579,53.2173,263.0786,96.7655,263.3517,0.00042021,6.409e-05,0.0,0 STARLINK-4800,1 53854U 22114AN  23287.30746254  .00006409  00000-0  42021-3 0  9999,2 53854  53.2173 263.0786 0001579  96.7655 263.3517 15.08857350 60117,6917.827,95.436,540.785,538.6,0.0
53854.0,STARLINK-4800,PAYLOAD,2023-10-15 04:02:46,15.08828621,0.0001361,53.2164,259.2099,96.6562,263.4585,-0.00018925,-3.298e-05,0.0,0 STARLINK-4800,1 53854U 22114AN  23288.16859379 -.00003298  00000-0 -18925-3 0  9998,2 53854  53.2164 259.2099 0001361  96.6562 263.4585 15.08828621 60245,6917.915,95.438,540.722,538.839,0.0
53854.0,STARLINK-4800,PAYLOAD,2023-10-15 07:13:32,15.08834157,0.0001412,53.2168,258.6152,98.5828,261.5324,-9.0397e-05,-1.726e-05,0.0,0 STARLINK-4800,1 53854U 22114AN  23288.30107470 -.00001726  00000-0 -90397-4 0  9990,2 53854  53.2168 258.6152 0001412  98.5828 261.5324 15.08834157 60808,6917.898,95.438,540.74,538.786,0.0
53854.0,STARLINK-4800,PAYLOAD,2023-10-15 15:10:28,15.08839168,0.0001341,53.2169,257.1284,94.8281,265.2864,1.9085e-05,1.6e-07,0.0,0 STARLINK-4800,1 53854U 22114AN  23288.63227318  .00000016  00000-0  19085-4 0  9994,2 53854  53.2169 257.1284 0001341  94.8281 265.2864 15.08839168 60315,6917.883,95.438,540.676,538.82,0.0
53854.0,STARLINK-4800,PAYLOAD,2023-10-16 07:04:19,15.08859903,0.0001284,53.2162,254.1549,96.7976,263.3162,0.00051377,7.903e-05,0.0,0 STARLINK-4800,1 53854U 22114AN  23289.29466621  .00007903  00000-0  51377-3 0  9990,2 53854  53.2162 254.1549 0001284  96.7976 263.3162 15.08859903 60417,6917.82,95.436,540.573,538.796,0.0
53854.0,STARLINK-4800,PAYLOAD,2023-10-16 21:22:48,15.08843931,0.0001393,53.216,251.4794,96.2202,263.8949,0.00024642,3.636e-05,0.0,0 STARLINK-4800,1 53854U 22114AN  23289.89083427  .00003636  00000-0  24642-3 0  9999,2 53854  53.2160 251.4794 0001393  96.2202 263.8949 15.08843931 60507,6917.868,95.437,540.697,538.77,0.0
53854.0,STARLINK-4800,PAYLOAD,2023-10-18 03:35:07,15.08850584,0.0001269,53.2162,245.829,93.9098,266.204,0.00038467,5.841e-05,0.0,0 STARLINK-4800,1 53854U 22114AN  23291.14939278  .00005841  00000-0  38467-3 0  9994,2 53854  53.2162 245.8290 0001269  93.9098 266.2040 15.08850584 60697,6917.848,95.437,540.591,538.835,0.0
53854.0,STARLINK-4800,PAYLOAD,2023-10-18 14:42:49,15.08843558,0.0001468,53.2151,243.7464,96.9686,263.1473,0.00024847,3.669e-05,0.0,0 STARLINK-4800,1 53854U 22114AN  23291.61307401  .00003669  00000-0  24847-3 0  9996,2 53854  53.2151 243.7464 0001468  96.9686 263.1473 15.08843558 60769,6917.87,95.437,540.75,538.719,0.0
53854.0,STARLINK-4800,PAYLOAD,2023-10-19 03:25:54,15.08850221,0.0001548,53.2167,241.3689,88.6319,271.485,0.0003655,5.535e-05,0.0,0 STARLINK-4800,1 53854U 22114AN  23292.14299322  .00005535  00000-0  36550-3 0  9995,2 53854  53.2167 241.3689 0001548  88.6319 271.4850 15.08850221 61384,6917.849,95.437,540.785,538.643,0.0
53854.0,STARLINK-4800,PAYLOAD,2023-10-19 20:55:09,15.08846455,0.0001517,53.2166,238.0974,86.4412,273.6753,0.00023847,3.51e-05,0.0,0 STARLINK-4800,1 53854U 22114AN  23292.87163304  .00003510  00000-0  23847-3 0  9991,2 53854  53.2166 238.0974 0001517  86.4412 273.6753 15.08846455 60951,6917.861,95.437,540.775,538.676,0.0
53854.0,STARLINK-4800,PAYLOAD,2023-10-20 06:27:27,15.08853084,0.0001573,53.2168,236.3117,88.875,271.2422,0.00027696,4.124e-05,0.0,0 STARLINK-4800,1 53854U 22114AN  23293.26906896  .00004124  00000-0  27696-3 0  9994,2 53854  53.2168 236.3117 0001573  88.8750 271.2422 15.08853084 61556,6917.84,95.437,540.794,538.617,0.0
53854.0,STARLINK-4800,PAYLOAD,2023-10-20 20:45:56,15.08827913,0.0001523,53.2166,233.6379,96.3167,263.7999,-0.00018057,-3.16e-05,0.0,0 STARLINK-4800,1 53854U 22114AN  23293.86523920 -.00003160  00000-0 -18057-3 0  9995,2 53854  53.2166 233.6379 0001523  96.3167 263.7999 15.08827913 61103,6917.917,95.438,540.836,538.729,0.0
53854.0,STARLINK-4800,PAYLOAD,2023-10-21 01:32:06,15.08828679,0.0001501,53.2169,232.7456,96.1948,263.9216,-0.00010834,-2.011e-05,0.0,0 STARLINK-4800,1 53854U 22114AN  23294.06396133 -.00002011  00000-0 -10834-3 0  9991,2 53854  53.2169 232.7456 0001501  96.1948 263.9216 15.08828679 61679,6917.915,95.438,540.818,538.742,0.0
53854.0,STARLINK-4800,PAYLOAD,2023-10-21 20:36:43,15.0884533,0.0001374,53.2164,229.1781,96.9532,263.1617,0.00023946,3.526e-05,0.0,0 STARLINK-4800,1 53854U 22114AN  23294.85883804  .00003526  00000-0  23946-3 0  9992,2 53854  53.2164 229.1781 0001374  96.9532 263.1617 15.08845330 61254,6917.864,95.437,540.68,538.779,0.0
53854.0,STARLINK-4800,PAYLOAD,2023-10-22 04:33:38,15.08863892,0.0001328,53.2166,227.6901,94.7684,265.346,0.00055952,8.634e-05,0.0,0 STARLINK-4800,1 53854U 22114AN  23295.19002781  .00008634  00000-0  55952-3 0  9994,2 53854  53.2166 227.6901 0001328  94.7684 265.3460 15.08863892 61305,6917.807,95.436,540.591,538.754,0.0
53854.0,STARLINK-4800,PAYLOAD,2023-10-22 12:30:34,15.08841594,0.0002502,53.2173,226.2024,79.14,280.9874,0.00018639,2.679e-05,0.0,0 STARLINK-4800,1 53854U 22114AN  23295.52123740  .00002679  00000-0  18639-3 0  9994,2 53854  53.2173 226.2024 0002502  79.1400 280.9874 15.08841594 61354,6917.876,95.437,541.471,538.01,0.0
53854.0,STARLINK-4800,PAYLOAD,2023-10-23 02:49:03,15.08823829,0.0001536,53.217,223.5265,78.2,281.9165,-0.00029306,-4.947e-05,0.0,0 STARLINK-4800,1 53854U 22114AN  23296.11740475 -.00004947  00000-0 -29306-3 0  9995,2 53854  53.2170 223.5265 0001536  78.2000 281.9165 15.08823829 61445,6917.93,95.439,540.857,538.732,0.0
53854.0,STARLINK-4800,PAYLOAD,2023-10-23 12:21:22,15.08830345,0.000135,53.2165,221.7442,78.4528,281.6616,-5.1598e-05,-1.109e-05,0.0,0 STARLINK-4800,1 53854U 22114AN  23296.51484476 -.00001109  00000-0 -51598-4 0  9991,2 53854  53.2165 221.7442 0001350  78.4528 281.6616 15.08830345 61503,6917.91,95.438,540.709,538.841,0.0
